UNKNOWN                 
1 82912U          25308.61010916  .00003135  00000+0  12925-2 0  9996
2 82912  65.8355 262.1242 0779847 286.0889  65.5702 13.27251382574261
UNKNOWN                 
1 82961U          25308.18808598  .00008632  00000+0  14041-1 0  9990
2 82961  99.9218 104.6159 0385577  99.0496 265.4455 13.22362344550612
UNKNOWN                 
1 82965U          25301.65945996  .00001337  00000+0  18600-2 0  9994
2 82965 100.1169  19.7271 0002369 200.4397 159.6647 13.59868042518325
UNKNOWN                 
1 83903U          25308.48076786 -.00000062  00000+0  00000+0 0  9994
2 83903   6.2813 290.9574 0124982 250.1828 298.2424  0.99111857 43282
UNKNOWN                 
1 83934U          25308.55260039 -.00000302  00000+0  00000+0 0  9999
2 83934   5.8718 297.7547 0234967 271.1155 116.6030  1.02664746 44890
UNKNOWN                 
1 83970U          25307.00807631  .00002950  00000+0  31613-2 0  9990
2 83970  18.2728 264.4103 5073898  61.1942 340.3117  5.31464536194099
UNKNOWN                 
1 84006U          25304.10557698 -.00000073  00000+0  00000+0 0  9992
2 84006  22.5300 186.1675 6135206  45.8381 350.6085  2.16233098 83303
UNKNOWN                 
1 84188U          25308.23469747  .00103553  00000+0  11956+0 0  9996
2 84188  65.0931 289.6174 3876862  22.7986 350.6252  7.25433941 38424
UNKNOWN                 
1 84232U          25307.07188727  .00005694  00000+0  43757-2 0  9997
2 84232  20.4104 296.9777 6567947  23.4265 356.3237  3.16494487103431
UNKNOWN                 
1 84236U          25304.71278823  .00000121  00000+0  21062-2 0  9991
2 84236   9.4447 353.7423 6894165  57.0990 351.1672  2.62478952112878
UNKNOWN                 
1 84292U          25307.01210568  .00003690  00000+0  20646-2 0  9992
2 84292  23.8052 215.3659 4566991 144.2596 257.3218  6.21151698225599
UNKNOWN                 
1 84406U          25300.19824096  .00000778  00000+0  42928-2 0  9999
2 84406 101.7191  83.7450 0044767 135.4950  45.4018 12.67246146 43396
UNKNOWN                 
1 84407U          25305.63233743 -.00000307  00000+0 -22165-1 0  9997
2 84407  19.5254 334.5604 7202455  39.7887 355.3376  2.05752514 75020
UNKNOWN                 
1 84575U          25304.10248857 -.00000121  00000+0 -28622-2 0  9995
2 84575  18.1381 172.4102 7102939 356.7600   0.5795  2.19884874 64522
UNKNOWN                 
1 84932U          25308.57634719  .00000826  00000+0  69470-2 0  9999
2 84932   2.1823 267.7991 6569630  11.1860 160.5647  2.99867154130630
UNKNOWN                 
1 85004U          25307.88131811  .00001468  00000+0  46504-3 0  9995
2 85004  98.4167 279.5135 0045986 279.9520 109.6482 14.40945027625304
UNKNOWN                 
1 85010U          25298.57938106  .00001382  00000+0  14906-2 0  9994
2 85010  99.2507 161.9637 0027660  18.6065  10.8836 13.74894221597309
UNKNOWN                 
1 85015U          25308.18576632  .00000636  00000+0  13200-3 0  9998
2 85015  74.0463 111.9787 0014869  24.5486 335.6385 14.62212070636975
UNKNOWN                 
1 85023U          25305.97642744  .00027291  00000+0  44285-2 0  9991
2 85023  99.8538 312.8809 0004300  76.2572 313.8716 14.71119985622835
UNKNOWN                 
1 85027U          25306.40738579  .00000113  00000+0  18068-3 0  9991
2 85027  66.0411 200.2737 0180858 211.7209 147.2859 13.74216793599074
UNKNOWN                 
1 85047U          25305.60196155  .00015352  00000+0  26233-1 0  9994
2 85047 102.2466 262.3973 0110784  88.4152 272.9654 13.42461465571136
UNKNOWN                 
1 85061U          25307.42455669  .00003695  00000+0  14673-1 0  9992
2 85061 102.3925 287.6544 0278636 271.8072 246.1173 12.76679422550762
UNKNOWN                 
1 85100U          25308.24464453  .00000445  00000+0  14763-3 0  9990
2 85100  74.0444 293.9503 0012305 178.6157 200.8257 14.40658929627801
UNKNOWN                 
1 85106U          25308.02788909  .00000719  00000+0  83430-3 0  9998
2 85106 100.0560  46.9869 0010497 113.2035  65.9295 13.72823230597752
UNKNOWN                 
1 85151U          25308.36885747  .00021643  00000+0  31304-2 0  9994
2 85151  98.4048 170.7969 0008394 278.2392  81.7864 14.76138943473869
UNKNOWN                 
1 85210U          25307.12766824  .00000790  00000+0  78570-3 0  9994
2 85210  99.8541  87.0432 0217315  55.8767 117.6430 13.71440989596722
UNKNOWN                 
1 85217U          25308.49578624  .00003519  00000+0  94188-3 0  9996
2 85217  98.0319  45.4037 0208582 243.6810 114.2822 14.36739271622369
UNKNOWN                 
1 85237U          25301.49798667  .00004906  00000+0  10732-2 0  9995
2 85237  65.5350 333.5415 0511538  48.4748 315.9051 13.99983230602013
UNKNOWN                 
1 85238U          25308.06054725  .00000056  00000+0  81506-4 0  9997
2 85238  99.0561 238.3571 0062660 305.9353 118.3069 13.88331463605475
UNKNOWN                 
1 85246U          25308.46948422  .00001652  00000+0  60067-3 0  9997
2 85246  97.9876 315.5665 0224936  57.0552 305.2040 14.21269821617637
UNKNOWN                 
1 85373U          25302.31169181  .00002980  00000+0  20540-2 0  9999
2 85373 100.4213 332.2652 0047422 354.3652  66.8761 13.99696129605919
UNKNOWN                 
1 87014U          25307.65058521  .00002806  00000+0  43317-2 0  9994
2 87014 100.4965 269.7634 0057216 335.9277 205.9936 13.51592110585630
UNKNOWN                 
1 87042U          25308.42164651  .00001081  00000+0  66681-3 0  9997
2 87042  98.7189 353.0104 0043514 201.8776 158.0536 14.07006982548573
UNKNOWN                 
1 87051U          25307.51499718  .00001664  00000+0  58692-3 0  9991
2 87051  65.7303 347.8222 0718395 159.3276 203.8488 13.45704983583307
UNKNOWN                 
1 87054U          25307.93898357  .00002441  00000+0  13912-2 0  9991
2 87054 100.0925 182.6080 0013579  84.7611 275.5105 14.10830109610852
UNKNOWN                 
1 87071U          25307.61294608  .00009080  00000+0  32196-2 0  9995
2 87071  61.2222  28.0715 0484317 217.8458 138.7588 13.85008182597068
UNKNOWN                 
1 87113U          25279.10108060  .01762118  14827-2  71219-2 0  9993
2 87113  65.5997 277.2947 0031772 239.2111 120.5927 15.85548661625569
UNKNOWN                 
1 87129U          25308.53115944  .00000181  00000+0  16420-2 0  9991
2 87129 102.2639  39.0405 0034137 158.6186 201.6312 12.42795481541925
UNKNOWN                 
1 87159U          25306.63005727  .00001262  00000+0  14709-2 0  9999
2 87159  90.3484  67.9533 0103994  16.9371 343.5218 13.65926562551211
UNKNOWN                 
1 87163U          25308.50504853  .00001791  00000+0  56940-3 0  9997
2 87163  65.6018 330.5784 0642219  81.8178 285.5162 13.63601219572308
UNKNOWN                 
1 87164U          25308.08109665  .00005366  00000+0  11193-2 0  9995
2 87164  65.2033  79.9324 0097189  73.5729 287.6026 14.57853817630131
UNKNOWN                 
1 87204U          25303.44520161  .00002964  00000+0  11740-2 0  9992
2 87204  98.5391 165.1402 0046756  90.2333 270.4206 14.29017347619257
UNKNOWN                 
1 87211U          25308.26433275  .00004197  00000+0  11708-2 0  9998
2 87211  99.0853 305.3379 0052646 274.2781 100.6430 14.46054155702210
UNKNOWN                 
1 87214U          25306.19638082  .00001945  00000+0  17585-2 0  9991
2 87214 100.3355 300.8906 0075529 356.3701   3.6893 13.83957771594637
UNKNOWN                 
1 87237U          25307.95348406  .00000348  00000+0  29614-3 0  9992
2 87237  99.2621   3.5115 0103474  29.7318 146.7163 13.91702173606365
UNKNOWN                 
1 87239U          25307.44664950  .00011112  00000+0  28118-2 0  9991
2 87239  82.8726 116.2070 0020069 167.0887 193.0829 14.50738004622177
UNKNOWN                 
1 87245U          25308.55990119  .00005989  00000+0  12346-2 0  9991
2 87245  65.6393 149.8843 0436677 140.2419 255.3633 14.15038590608806
UNKNOWN                 
1 87271U          25308.48554427  .00004908  00000+0  93290-3 0  9998
2 87271  65.7561 339.0642 0421115  93.9204 271.0121 14.20955905606933
UNKNOWN                 
1 87280U          25307.37192622  .00000558  00000+0  97755-3 0  9997
2 87280  64.6164 332.7394 0131489 268.0413  90.5563 13.48502737528547
UNKNOWN                 
1 87293U          25308.57335490  .00014394  00000+0  29078-2 0  9991
2 87293  65.9000 246.6154 0425792  20.4275 341.3273 14.17134367608585
UNKNOWN                 
1 87300U          25306.18085133  .00002028  00000+0  14276-2 0  9996
2 87300 100.0852 284.5859 0030542  38.3437 321.9886 13.99227678607441
UNKNOWN                 
1 87304U          25307.51848118  .00001886  00000+0  28323-3 0  9998
2 87304  74.0222  37.7196 0018221  13.4549 346.7106 14.75197510640696
UNKNOWN                 
1 87320U          25305.05120153  .00002412  00000+0  15433-2 0  9998
2 87320  66.5939 183.6930 0414720  81.8630 282.9252 13.69848350588035
UNKNOWN                 
1 87334U          25308.61738002  .00022747  00000+0  13868-1 0  9998
2 87334  90.0060 271.7113 0080827   6.0513 354.1625 14.04295977381291
UNKNOWN                 
1 87335U          25308.35900082  .00024255  00000+0  14497-1 0  9994
2 87335  89.9902 268.0872 0093379 346.7123  13.1600 14.04835160381583
UNKNOWN                 
1 87405U          25307.37073715  .00002833  00000+0  20248-2 0  9997
2 87405  82.7472  91.1675 0058628  84.2129 276.5718 13.96081426605669
UNKNOWN                 
1 87426U          25307.37401493  .00004619  00000+0  18140-2 0  9990
2 87426  65.7828  81.2254 0066032 308.6373  82.6754 14.29024044616964
UNKNOWN                 
1 87448U          25308.51998669  .00001514  00000+0  12415-2 0  9997
2 87448 100.4525 150.3265 0064602 303.4668  56.0321 13.90430004603921
UNKNOWN                 
1 87456U          25302.20807272  .00016426  00000+0  25106-2 0  9994
2 87456  65.7817 209.1093 0509348  27.9965 334.7539 14.12644000605206
